{
  "type": "FeatureCollection",
  "features": [
    {
      "type": "Feature",
      "properties": {
        "norad_id": 36261,
        "name": "FENGYUN 1C DEB",
        "group": "fengyun-1c-debris",
        "lat": 10.998762363034153,
        "lon": -106.50461137053783,
        "alt_km": 856.5987896783399,
        "timestamp": "2025-12-27T13:34:49.583515+00:00",
        "meta_object_name": "FENGYUN 1C DEB",
        "meta_object_id": "1999-025DWN",
        "meta_epoch": "2025-12-26T23:15:06.194880",
        "meta_mean_motion": 13.4549511,
        "meta_eccentricity": 0.0355893,
        "meta_inclination": 101.3651,
        "meta_ra_of_asc_node": 255.0596,
        "meta_arg_of_pericenter": 42.261,
        "meta_mean_anomaly": 320.5368,
        "meta_ephemeris_type": 0,
        "meta_classification_type": "U",
        "meta_norad_cat_id": 36261,
        "meta_element_set_no": 999,
        "meta_rev_at_epoch": 84624,
        "meta_bstar": 0.00068631,
        "meta_mean_motion_dot": 5.42e-06,
        "meta_mean_motion_ddot": 0,
        "tle_line1": "1 36261U 99025DWN 25360.96882170  .00000542  00000+0  68631-3 0  9997",
        "tle_line2": "2 36261 101.3651 255.0596 0355893  42.2610 320.5368 13.45495110846241"
      },
      "geometry": {
        "type": "Point",
        "coordinates": [
          -106.50461137053783,
          10.998762363034153
        ]
      }
    },
    {
      "type": "Feature",
      "properties": {
        "norad_id": 36262,
        "name": "FENGYUN 1C DEB",
        "group": "fengyun-1c-debris",
        "lat": 65.8756839242669,
        "lon": 83.0819089754752,
        "alt_km": 813.4598145138862,
        "timestamp": "2025-12-27T13:34:49.583525+00:00",
        "meta_object_name": "FENGYUN 1C DEB",
        "meta_object_id": "1999-025DWP",
        "meta_epoch": "2025-12-24T22:49:21.024192",
        "meta_mean_motion": 14.27822117,
        "meta_eccentricity": 0.0059764,
        "meta_inclination": 98.9607,
        "meta_ra_of_asc_node": 239.7712,
        "meta_arg_of_pericenter": 239.4919,
        "meta_mean_anomaly": 120.0352,
        "meta_ephemeris_type": 0,
        "meta_classification_type": "U",
        "meta_norad_cat_id": 36262,
        "meta_element_set_no": 999,
        "meta_rev_at_epoch": 89671,
        "meta_bstar": 0.00026973,
        "meta_mean_motion_dot": 6.33e-06,
        "meta_mean_motion_ddot": 0,
        "tle_line1": "1 36262U 99025DWP 25358.95093778  .00000633  00000+0  26973-3 0  9996",
        "tle_line2": "2 36262  98.9607 239.7712 0059764 239.4919 120.0352 14.27822117896718"
      },
      "geometry": {
        "type": "Point",
        "coordinates": [
          83.0819089754752,
          65.8756839242669
        ]
      }
    },
    {
      "type": "Feature",
      "properties": {
        "norad_id": 36263,
        "name": "FENGYUN 1C DEB",
        "group": "fengyun-1c-debris",
        "lat": 21.1476909585195,
        "lon": 67.02503237710091,
        "alt_km": 726.9849698026601,
        "timestamp": "2025-12-27T13:34:49.583535+00:00",
        "meta_object_name": "FENGYUN 1C DEB",
        "meta_object_id": "1999-025DWQ",
        "meta_epoch": "2025-12-24T21:43:53.936832",
        "meta_mean_motion": 14.45786448,
        "meta_eccentricity": 0.0035498,
        "meta_inclination": 98.9986,
        "meta_ra_of_asc_node": 240.6907,
        "meta_arg_of_pericenter": 227.7393,
        "meta_mean_anomaly": 132.0784,
        "meta_ephemeris_type": 0,
        "meta_classification_type": "U",
        "meta_norad_cat_id": 36263,
        "meta_element_set_no": 999,
        "meta_rev_at_epoch": 88161,
        "meta_bstar": 0.0018996,
        "meta_mean_motion_dot": 6.745e-05,
        "meta_mean_motion_ddot": 0,
        "tle_line1": "1 36263U 99025DWQ 25358.90548538  .00006745  00000+0  18996-2 0  9996",
        "tle_line2": "2 36263  98.9986 240.6907 0035498 227.7393 132.0784 14.45786448881611"
      },
      "geometry": {
        "type": "Point",
        "coordinates": [
          67.02503237710091,
          21.1476909585195
        ]
      }
    },
    {
      "type": "Feature",
      "properties": {
        "norad_id": 36267,
        "name": "FENGYUN 1C DEB",
        "group": "fengyun-1c-debris",
        "lat": -46.355954223287775,
        "lon": 119.1353440878482,
        "alt_km": 821.2569485037711,
        "timestamp": "2025-12-27T13:34:49.583545+00:00",
        "meta_object_name": "FENGYUN 1C DEB",
        "meta_object_id": "1999-025DWU",
        "meta_epoch": "2025-12-24T08:32:51.428256",
        "meta_mean_motion": 14.09131706,
        "meta_eccentricity": 0.01263202,
        "meta_inclination": 98.5603,
        "meta_ra_of_asc_node": 305.1713,
        "meta_arg_of_pericenter": 176.9466,
        "meta_mean_anomaly": 335.4349,
        "meta_ephemeris_type": 0,
        "meta_classification_type": "U",
        "meta_norad_cat_id": 36267,
        "meta_element_set_no": 999,
        "meta_rev_at_epoch": 86693,
        "meta_bstar": 0.00070779992,
        "meta_mean_motion_dot": 1.282e-05,
        "meta_mean_motion_ddot": 0,
        "tle_line1": "1 36267U 99025DWU 25358.35615079  .00001282  00000+0  70780-3 0  9995",
        "tle_line2": "2 36267  98.5603 305.1713 0126320 176.9466 335.4349 14.09131706866935"
      },
      "geometry": {
        "type": "Point",
        "coordinates": [
          119.1353440878482,
          -46.355954223287775
        ]
      }
    },
    {
      "type": "Feature",
      "properties": {
        "norad_id": 36269,
        "name": "FENGYUN 1C DEB",
        "group": "fengyun-1c-debris",
        "lat": -34.42354988184581,
        "lon": 117.83508828863495,
        "alt_km": 652.1732971031306,
        "timestamp": "2025-12-27T13:34:49.583554+00:00",
        "meta_object_name": "FENGYUN 1C DEB",
        "meta_object_id": "1999-025DWW",
        "meta_epoch": "2025-12-14T01:28:51.707712",
        "meta_mean_motion": 14.27043075,
        "meta_eccentricity": 0.02331074,
        "meta_inclination": 99.1079,
        "meta_ra_of_asc_node": 290.0784,
        "meta_arg_of_pericenter": 275.9651,
        "meta_mean_anomaly": 81.5008,
        "meta_ephemeris_type": 0,
        "meta_classification_type": "U",
        "meta_norad_cat_id": 36269,
        "meta_element_set_no": 999,
        "meta_rev_at_epoch": 87735,
        "meta_bstar": 0.00079666975,
        "meta_mean_motion_dot": 2.532e-05,
        "meta_mean_motion_ddot": 0,
        "tle_line1": "1 36269U 99025DWW 25348.06170958  .00002532  00000+0  79667-3 0  9998",
        "tle_line2": "2 36269  99.1079 290.0784 0233107 275.9651  81.5008 14.27043075877359"
      },
      "geometry": {
        "type": "Point",
        "coordinates": [
          117.83508828863495,
          -34.42354988184581
        ]
      }
    },
    {
      "type": "Feature",
      "properties": {
        "norad_id": 36272,
        "name": "FENGYUN 1C DEB",
        "group": "fengyun-1c-debris",
        "lat": 42.33015854491413,
        "lon": 66.70596251288393,
        "alt_km": 826.9970404478454,
        "timestamp": "2025-12-27T13:34:49.583564+00:00",
        "meta_object_name": "FENGYUN 1C DEB",
        "meta_object_id": "1999-025DWZ",
        "meta_epoch": "2025-12-27T02:45:17.895744",
        "meta_mean_motion": 14.17283848,
        "meta_eccentricity": 0.01676215,
        "meta_inclination": 99.1378,
        "meta_ra_of_asc_node": 237.8117,
        "meta_arg_of_pericenter": 227.2416,
        "meta_mean_anomaly": 131.4552,
        "meta_ephemeris_type": 0,
        "meta_classification_type": "U",
        "meta_norad_cat_id": 36272,
        "meta_element_set_no": 999,
        "meta_rev_at_epoch": 63820,
        "meta_bstar": 0.00050150867,
        "meta_mean_motion_dot": 1.115e-05,
        "meta_mean_motion_ddot": 0,
        "tle_line1": "1 36272U 99025DWZ 25361.11479046  .00001115  00000+0  50151-3 0  9996",
        "tle_line2": "2 36272  99.1378 237.8117 0167621 227.2416 131.4552 14.17283848638201"
      },
      "geometry": {
        "type": "Point",
        "coordinates": [
          66.70596251288393,
          42.33015854491413
        ]
      }
    },
    {
      "type": "Feature",
      "properties": {
        "norad_id": 36273,
        "name": "FENGYUN 1C DEB",
        "group": "fengyun-1c-debris",
        "lat": 80.0692229253184,
        "lon": 156.912317048225,
        "alt_km": 882.5809928246317,
        "timestamp": "2025-12-27T13:34:49.583574+00:00",
        "meta_object_name": "FENGYUN 1C DEB",
        "meta_object_id": "1999-025DXA",
        "meta_epoch": "2025-12-10T21:07:00.418080",
        "meta_mean_motion": 14.16564043,
        "meta_eccentricity": 0.0096501,
        "meta_inclination": 99.6045,
        "meta_ra_of_asc_node": 214.1863,
        "meta_arg_of_pericenter": 353.8475,
        "meta_mean_anomaly": 6.1504,
        "meta_ephemeris_type": 0,
        "meta_classification_type": "U",
        "meta_norad_cat_id": 36273,
        "meta_element_set_no": 999,
        "meta_rev_at_epoch": 66207,
        "meta_bstar": 0.00042955,
        "meta_mean_motion_dot": 8.45e-06,
        "meta_mean_motion_ddot": 0,
        "tle_line1": "1 36273U 99025DXA 25344.87986595  .00000845  00000+0  42955-3 0  9995",
        "tle_line2": "2 36273  99.6045 214.1863 0096501 353.8475   6.1504 14.16564043662078"
      },
      "geometry": {
        "type": "Point",
        "coordinates": [
          156.912317048225,
          80.0692229253184
        ]
      }
    }
  ]
}